KUIPER-00572            
1 69272U 26118F   26186.25005787  .00071057  00000+0  20691-2 0  9990
2 69272  51.8688 326.0705 0006853 246.0719 313.7586 15.34733549  5000
KUIPER-00581            
1 69273U 26118G   26186.25005787 -.01181671  00000+0 -54219-1 0  9990
2 69273  51.8767 326.5199 0007833 256.5608  55.3575 15.22714093  4380
KUIPER-00584            
1 69274U 26118H   26186.25005787 -.00836533  00000+0 -55854-1 0  9990
2 69274  51.8800 327.7249 0012599 266.8592 133.2450 15.09067921  5351
KUIPER-00587            
1 69275U 26118J   26185.69666650  .00080448  00000+0  21763-2 0  9997
2 69275  51.8638 328.7559 0007272 253.2850 106.7339 15.36971196  6670
KUIPER-00590            
1 69276U 26118K   26186.25005787 -.01042788  00000+0 -33623-1 0  9994
2 69276  51.8722 325.8434 0001966 252.7363  62.6864 15.34307304  3641
KUIPER-00592            
1 69277U 26118L   26186.25005787  .00090034  00000+0  28894-2 0  9994
2 69277  51.8753 325.8354 0002077 182.0223 146.2902 15.31545566  2968
KUIPER-00593            
1 69278U 26118M   26185.66408413  .00057778  00000+0  14919-2 0  9993
2 69278  51.8739 328.5644 0003140 233.4057 126.6642 15.38579089  6739
KUIPER-00594            
1 69279U 26118N   26185.78520319  .00080498  00000+0  21593-2 0  9998
2 69279  51.8728 327.8778 0001849  43.7934 316.3199 15.37255637  6697
KUIPER-00595            
1 69280U 26118P   26185.85295503  .00042812  00000+0  11562-2 0  9995
2 69280  51.8727 327.5818 0000658 276.6004  83.4908 15.37331556  6732
KUIPER-00596            
1 69281U 26118Q   26186.25005787 -.01085583  00000+0 -71477-1 0  9999
2 69281  51.8827 327.5924 0012698 264.1742 216.3399 15.09835760  4543
KUIPER-00597            
1 69282U 26118R   26185.81666404  .00076153  00000+0  20256-2 0  9990
2 69282  51.8648 328.0681 0006879 246.6647 113.3616 15.37522531  6690
KUIPER-00599            
1 69283U 26118S   26185.81074550  .00100989  00000+0  26498-2 0  9995
2 69283  51.8709 328.0420 0006752 246.9832 113.0443 15.37806093  6692
KUIPER-00600            
1 69284U 26118T   26185.75970417  .00052359  00000+0  14131-2 0  9994
2 69284  51.8646 328.4328 0008037 244.0547 115.9611 15.37232610  6689
KUIPER-00601            
1 69285U 26118U   26186.25005787 -.00965577  00000+0 -32800-1 0  9999
2 69285  51.8743 325.8932 0003701 225.1941  60.1207 15.32454561  4979
KUIPER-00602            
1 69286U 26118V   26185.79098673  .00063975  00000+0  16429-2 0  9993
2 69286  51.8733 327.9148 0002498 235.6708 124.4043 15.38702955  6692
KUIPER-00603            
1 69287U 26118W   26185.80522049  .00023656  00000+0  62768-3 0  9995
2 69287  51.8694 328.0011 0004956 248.7853 111.2604 15.38174386  6695
