{"fetched_at":"2026-07-05T17:36:07.652Z","source":"https://celestrak.org/NORAD/elements/gp.php?GROUP=kuiper&FORMAT=JSON","constellation":"kuiper","records":[{"OBJECT_NAME":"KUIPER-00572","OBJECT_ID":"2026-118F","EPOCH":"2026-07-05T06:00:04.999968","CLASSIFICATION_TYPE":"U","MEAN_MOTION":15.34733549,"ECCENTRICITY":0.00068538,"INCLINATION":51.8688,"RA_OF_ASC_NODE":326.0705,"ARG_OF_PERICENTER":246.0719,"MEAN_ANOMALY":313.7586,"EPHEMERIS_TYPE":0,"NORAD_CAT_ID":69272,"ELEMENT_SET_NO":999,"REV_AT_EPOCH":500,"BSTAR":0.002069113,"MEAN_MOTION_DOT":0.00071057,"MEAN_MOTION_DDOT":0},{"OBJECT_NAME":"KUIPER-00581","OBJECT_ID":"2026-118G","EPOCH":"2026-07-05T06:00:04.999968","CLASSIFICATION_TYPE":"U","MEAN_MOTION":15.22714093,"ECCENTRICITY":0.00078334,"INCLINATION":51.8767,"RA_OF_ASC_NODE":326.5199,"ARG_OF_PERICENTER":256.5608,"MEAN_ANOMALY":55.3575,"EPHEMERIS_TYPE":0,"NORAD_CAT_ID":69273,"ELEMENT_SET_NO":999,"REV_AT_EPOCH":438,"BSTAR":-0.054218956,"MEAN_MOTION_DOT":-0.01181671,"MEAN_MOTION_DDOT":0},{"OBJECT_NAME":"KUIPER-00584","OBJECT_ID":"2026-118H","EPOCH":"2026-07-05T06:00:04.999968","CLASSIFICATION_TYPE":"U","MEAN_MOTION":15.09067921,"ECCENTRICITY":0.00125991,"INCLINATION":51.88,"RA_OF_ASC_NODE":327.7249,"ARG_OF_PERICENTER":266.8592,"MEAN_ANOMALY":133.245,"EPHEMERIS_TYPE":0,"NORAD_CAT_ID":69274,"ELEMENT_SET_NO":999,"REV_AT_EPOCH":535,"BSTAR":-0.055853883,"MEAN_MOTION_DOT":-0.00836533,"MEAN_MOTION_DDOT":0},{"OBJECT_NAME":"KUIPER-00587","OBJECT_ID":"2026-118J","EPOCH":"2026-07-04T16:43:11.985600","CLASSIFICATION_TYPE":"U","MEAN_MOTION":15.36971196,"ECCENTRICITY":0.00072726,"INCLINATION":51.8638,"RA_OF_ASC_NODE":328.7559,"ARG_OF_PERICENTER":253.285,"MEAN_ANOMALY":106.7339,"EPHEMERIS_TYPE":0,"NORAD_CAT_ID":69275,"ELEMENT_SET_NO":999,"REV_AT_EPOCH":667,"BSTAR":0.002176337,"MEAN_MOTION_DOT":0.00080448,"MEAN_MOTION_DDOT":0},{"OBJECT_NAME":"KUIPER-00590","OBJECT_ID":"2026-118K","EPOCH":"2026-07-05T06:00:04.999968","CLASSIFICATION_TYPE":"U","MEAN_MOTION":15.34307304,"ECCENTRICITY":0.00019661,"INCLINATION":51.8722,"RA_OF_ASC_NODE":325.8434,"ARG_OF_PERICENTER":252.7363,"MEAN_ANOMALY":62.6864,"EPHEMERIS_TYPE":0,"NORAD_CAT_ID":69276,"ELEMENT_SET_NO":999,"REV_AT_EPOCH":364,"BSTAR":-0.033622967,"MEAN_MOTION_DOT":-0.01042788,"MEAN_MOTION_DDOT":0},{"OBJECT_NAME":"KUIPER-00592","OBJECT_ID":"2026-118L","EPOCH":"2026-07-05T06:00:04.999968","CLASSIFICATION_TYPE":"U","MEAN_MOTION":15.31545566,"ECCENTRICITY":0.00020773,"INCLINATION":51.8753,"RA_OF_ASC_NODE":325.8354,"ARG_OF_PERICENTER":182.0223,"MEAN_ANOMALY":146.2902,"EPHEMERIS_TYPE":0,"NORAD_CAT_ID":69277,"ELEMENT_SET_NO":999,"REV_AT_EPOCH":296,"BSTAR":0.0028894487,"MEAN_MOTION_DOT":0.00090034,"MEAN_MOTION_DDOT":0},{"OBJECT_NAME":"KUIPER-00593","OBJECT_ID":"2026-118M","EPOCH":"2026-07-04T15:56:16.868832","CLASSIFICATION_TYPE":"U","MEAN_MOTION":15.38579089,"ECCENTRICITY":0.00031405,"INCLINATION":51.8739,"RA_OF_ASC_NODE":328.5644,"ARG_OF_PERICENTER":233.4057,"MEAN_ANOMALY":126.6642,"EPHEMERIS_TYPE":0,"NORAD_CAT_ID":69278,"ELEMENT_SET_NO":999,"REV_AT_EPOCH":673,"BSTAR":0.0014918697,"MEAN_MOTION_DOT":0.00057778,"MEAN_MOTION_DDOT":0},{"OBJECT_NAME":"KUIPER-00594","OBJECT_ID":"2026-118N","EPOCH":"2026-07-04T18:50:41.555616","CLASSIFICATION_TYPE":"U","MEAN_MOTION":15.37255637,"ECCENTRICITY":0.00018496,"INCLINATION":51.8728,"RA_OF_ASC_NODE":327.8778,"ARG_OF_PERICENTER":43.7934,"MEAN_ANOMALY":316.3199,"EPHEMERIS_TYPE":0,"NORAD_CAT_ID":69279,"ELEMENT_SET_NO":999,"REV_AT_EPOCH":669,"BSTAR":0.0021592705,"MEAN_MOTION_DOT":0.00080498,"MEAN_MOTION_DDOT":0},{"OBJECT_NAME":"KUIPER-00595","OBJECT_ID":"2026-118P","EPOCH":"2026-07-04T20:28:15.314592","CLASSIFICATION_TYPE":"U","MEAN_MOTION":15.37331556,"ECCENTRICITY":0.00006582,"INCLINATION":51.8727,"RA_OF_ASC_NODE":327.5818,"ARG_OF_PERICENTER":276.6004,"MEAN_ANOMALY":83.4908,"EPHEMERIS_TYPE":0,"NORAD_CAT_ID":69280,"ELEMENT_SET_NO":999,"REV_AT_EPOCH":673,"BSTAR":0.0011561991,"MEAN_MOTION_DOT":0.00042812,"MEAN_MOTION_DDOT":0},{"OBJECT_NAME":"KUIPER-00596","OBJECT_ID":"2026-118Q","EPOCH":"2026-07-05T06:00:04.999968","CLASSIFICATION_TYPE":"U","MEAN_MOTION":15.0983576,"ECCENTRICITY":0.00126983,"INCLINATION":51.8827,"RA_OF_ASC_NODE":327.5924,"ARG_OF_PERICENTER":264.1742,"MEAN_ANOMALY":216.3399,"EPHEMERIS_TYPE":0,"NORAD_CAT_ID":69281,"ELEMENT_SET_NO":999,"REV_AT_EPOCH":454,"BSTAR":-0.071477163,"MEAN_MOTION_DOT":-0.01085583,"MEAN_MOTION_DDOT":0},{"OBJECT_NAME":"KUIPER-00597","OBJECT_ID":"2026-118R","EPOCH":"2026-07-04T19:35:59.773056","CLASSIFICATION_TYPE":"U","MEAN_MOTION":15.37522531,"ECCENTRICITY":0.00068793,"INCLINATION":51.8648,"RA_OF_ASC_NODE":328.0681,"ARG_OF_PERICENTER":246.6647,"MEAN_ANOMALY":113.3616,"EPHEMERIS_TYPE":0,"NORAD_CAT_ID":69282,"ELEMENT_SET_NO":999,"REV_AT_EPOCH":669,"BSTAR":0.0020256384,"MEAN_MOTION_DOT":0.00076153,"MEAN_MOTION_DDOT":0},{"OBJECT_NAME":"KUIPER-00599","OBJECT_ID":"2026-118S","EPOCH":"2026-07-04T19:27:28.411200","CLASSIFICATION_TYPE":"U","MEAN_MOTION":15.37806093,"ECCENTRICITY":0.00067523,"INCLINATION":51.8709,"RA_OF_ASC_NODE":328.042,"ARG_OF_PERICENTER":246.9832,"MEAN_ANOMALY":113.0443,"EPHEMERIS_TYPE":0,"NORAD_CAT_ID":69283,"ELEMENT_SET_NO":999,"REV_AT_EPOCH":669,"BSTAR":0.0026497505,"MEAN_MOTION_DOT":0.00100989,"MEAN_MOTION_DDOT":0},{"OBJECT_NAME":"KUIPER-00600","OBJECT_ID":"2026-118T","EPOCH":"2026-07-04T18:13:58.440288","CLASSIFICATION_TYPE":"U","MEAN_MOTION":15.3723261,"ECCENTRICITY":0.00080378,"INCLINATION":51.8646,"RA_OF_ASC_NODE":328.4328,"ARG_OF_PERICENTER":244.0547,"MEAN_ANOMALY":115.9611,"EPHEMERIS_TYPE":0,"NORAD_CAT_ID":69284,"ELEMENT_SET_NO":999,"REV_AT_EPOCH":668,"BSTAR":0.0014131379,"MEAN_MOTION_DOT":0.00052359,"MEAN_MOTION_DDOT":0},{"OBJECT_NAME":"KUIPER-00601","OBJECT_ID":"2026-118U","EPOCH":"2026-07-05T06:00:04.999968","CLASSIFICATION_TYPE":"U","MEAN_MOTION":15.32454561,"ECCENTRICITY":0.00037018,"INCLINATION":51.8743,"RA_OF_ASC_NODE":325.8932,"ARG_OF_PERICENTER":225.1941,"MEAN_ANOMALY":60.1207,"EPHEMERIS_TYPE":0,"NORAD_CAT_ID":69285,"ELEMENT_SET_NO":999,"REV_AT_EPOCH":497,"BSTAR":-0.032799505,"MEAN_MOTION_DOT":-0.00965577,"MEAN_MOTION_DDOT":0},{"OBJECT_NAME":"KUIPER-00602","OBJECT_ID":"2026-118V","EPOCH":"2026-07-04T18:59:01.253472","CLASSIFICATION_TYPE":"U","MEAN_MOTION":15.38702955,"ECCENTRICITY":0.0002498,"INCLINATION":51.8733,"RA_OF_ASC_NODE":327.9148,"ARG_OF_PERICENTER":235.6708,"MEAN_ANOMALY":124.4043,"EPHEMERIS_TYPE":0,"NORAD_CAT_ID":69286,"ELEMENT_SET_NO":999,"REV_AT_EPOCH":669,"BSTAR":0.00164289,"MEAN_MOTION_DOT":0.00063975,"MEAN_MOTION_DDOT":0},{"OBJECT_NAME":"KUIPER-00603","OBJECT_ID":"2026-118W","EPOCH":"2026-07-04T19:19:31.050336","CLASSIFICATION_TYPE":"U","MEAN_MOTION":15.38174386,"ECCENTRICITY":0.00049564,"INCLINATION":51.8694,"RA_OF_ASC_NODE":328.0011,"ARG_OF_PERICENTER":248.7853,"MEAN_ANOMALY":111.2604,"EPHEMERIS_TYPE":0,"NORAD_CAT_ID":69287,"ELEMENT_SET_NO":999,"REV_AT_EPOCH":669,"BSTAR":0.00062767884,"MEAN_MOTION_DOT":0.00023656,"MEAN_MOTION_DDOT":0}]}
